ONEWEB-0415             
1 51624U 22012C   24128.56252237  .00000002  00000+0 -29366-4 0  9996
2 51624  87.8970 189.4526 0002480  96.7113 263.4297 13.10370336108363
ONEWEB-0416             
1 51625U 22012D   24128.57413405 -.00000501  00000+0 -14719-2 0  9993
2 51625  87.8978 189.4427 0002074  98.5890 261.5473 13.10371725108406
ONEWEB-0422             
1 51626U 22012E   24128.55111890  .00000017  00000+0  10582-4 0  9991
2 51626  87.9181 159.2247 0002079 115.7775 244.3572 13.17649247113609
ONEWEB-0423             
1 51627U 22012F   24128.54479733  .00000074  00000+0  15863-3 0  9993
2 51627  87.9182 159.2264 0001938  94.5810 265.5543 13.17648933112217
ONEWEB-0425             
1 51628U 22012G   24128.58408342 -.00000626  00000+0 -18293-2 0  9990
2 51628  87.8976 189.4257 0001711  93.2019 266.9304 13.10373238108403
ONEWEB-0428             
1 51629U 22012H   24128.56416749 -.00000138  00000+0 -43017-3 0  9990
2 51629  87.8973 189.4443 0002338 105.9399 254.1986 13.10368093108369
ONEWEB-0431             
1 51630U 22012J   24128.61053199  .00000477  00000+0  13308-2 0  9997
2 51630  87.8973 189.4349 0002827 105.4593 254.6847 13.10374332108421
ONEWEB-0434             
1 51631U 22012K   24128.58739878 -.00000562  00000+0 -16458-2 0  9995
2 51631  87.8981 189.4517 0002080 104.7751 255.3607 13.10372319108400
